NOAA 5                  
1 09057U 76077A   24326.94761534 -.00000008  00000+0  28996-3 0  9999
2 09057 102.2320 300.2184 0009787 308.8199  56.9899 12.37809307183895
